[
    {
        "Altitude(m)": 707248.1616616207,
        "Argument of Periapsis(deg)": 0.007973084830638947,
        "Eccentricity": 0.0,
        "Inclination(deg)": 45.0,
        "Latitude(deg)": -17.295885440650416,
        "Longitude(deg)": 81.42541117917266,
        "Mean Anomaly(deg)": -24.654048346763407,
        "RAAN(deg)": 199.99247364097928,
        "Satellite Name": "Constellation 1 900",
        "Satellite Number": 900,
        "Semi-Major Axis(m)": 7083131.272910544,
        "Time(s)": 133
    },
    {
        "Altitude(m)": 707235.686808755,
        "Argument of Periapsis(deg)": 0.008033032836884352,
        "Eccentricity": 0.0,
        "Inclination(deg)": 45.0,
        "Latitude(deg)": -17.254860071595214,
        "Longitude(deg)": 81.46823622111563,
        "Mean Anomaly(deg)": -24.593347206513567,
        "RAAN(deg)": 199.99241705181367,
        "Satellite Name": "Constellation 1 900",
        "Satellite Number": 900,
        "Semi-Major Axis(m)": 7083131.272910544,
        "Time(s)": 134
    },
    {
        "Altitude(m)": 707223.2228671006,
        "Argument of Periapsis(deg)": 0.008092980843129758,
        "Eccentricity": 0.0,
        "Inclination(deg)": 45.0,
        "Latitude(deg)": -17.21382349086614,
        "Longitude(deg)": 81.51104063827935,
        "Mean Anomaly(deg)": -24.53264606626368,
        "RAAN(deg)": 199.99236046264812,
        "Satellite Name": "Constellation 1 900",
        "Satellite Number": 900,
        "Semi-Major Axis(m)": 7083131.272910544,
        "Time(s)": 135
    },
    {
        "Altitude(m)": 707210.7698757049,
        "Argument of Periapsis(deg)": 0.008152928849375162,
        "Eccentricity": 0.0,
        "Inclination(deg)": 45.0,
        "Latitude(deg)": -17.17277573111172,
        "Longitude(deg)": 81.5538244864854,
        "Mean Anomaly(deg)": -24.471944926013744,
        "RAAN(deg)": 199.99230387348254,
        "Satellite Name": "Constellation 1 900",
        "Satellite Number": 900,
        "Semi-Major Axis(m)": 7083131.272910544,
        "Time(s)": 136
    },
    {
        "Altitude(m)": 707198.3278735592,
        "Argument of Periapsis(deg)": 0.008212876855620568,
        "Eccentricity": 0.0,
        "Inclination(deg)": 45.0,
        "Latitude(deg)": -17.131716824940668,
        "Longitude(deg)": 81.59658782152503,
        "Mean Anomaly(deg)": -24.41124378576378,
        "RAAN(deg)": 199.992247284317,
        "Satellite Name": "Constellation 1 900",
        "Satellite Number": 900,
        "Semi-Major Axis(m)": 7083131.272910544,
        "Time(s)": 137
    },
    {
        "Altitude(m)": 707185.8968996009,
        "Argument of Periapsis(deg)": 0.008272824861865974,
        "Eccentricity": 0.0,
        "Inclination(deg)": 45.0,
        "Latitude(deg)": -17.090646804921803,
        "Longitude(deg)": 81.63933069915933,
        "Mean Anomaly(deg)": -24.350542645513894,
        "RAAN(deg)": 199.99219069515144,
        "Satellite Name": "Constellation 1 900",
        "Satellite Number": 900,
        "Semi-Major Axis(m)": 7083131.272910544,
        "Time(s)": 138
    },
    {
        "Altitude(m)": 707173.4769927077,
        "Argument of Periapsis(deg)": 0.00833277286811138,
        "Eccentricity": 0.0,
        "Inclination(deg)": 45.0,
        "Latitude(deg)": -17.049565703584143,
        "Longitude(deg)": 81.68205317511939,
        "Mean Anomaly(deg)": -24.28984150526406,
        "RAAN(deg)": 199.99213410598583,
        "Satellite Name": "Constellation 1 900",
        "Satellite Number": 900,
        "Semi-Major Axis(m)": 7083131.272910544,
        "Time(s)": 139
    },
    {
        "Altitude(m)": 707161.0681916944,
        "Argument of Periapsis(deg)": 0.008392720874356788,
        "Eccentricity": 0.0,
        "Inclination(deg)": 45.0,
        "Latitude(deg)": -17.00847355341706,
        "Longitude(deg)": 81.72475530510609,
        "Mean Anomaly(deg)": -24.22914036501407,
        "RAAN(deg)": 199.99207751682027,
        "Satellite Name": "Constellation 1 900",
        "Satellite Number": 900,
        "Semi-Major Axis(m)": 7083131.272910544,
        "Time(s)": 140
    },
    {
        "Altitude(m)": 707148.6705353282,
        "Argument of Periapsis(deg)": 0.008452668880602192,
        "Eccentricity": 0.0,
        "Inclination(deg)": 45.0,
        "Latitude(deg)": -16.967370386870755,
        "Longitude(deg)": 81.76743697669295,
        "Mean Anomaly(deg)": -24.168439224764235,
        "RAAN(deg)": 199.9920209276547,
        "Satellite Name": "Constellation 1 900",
        "Satellite Number": 900,
        "Semi-Major Axis(m)": 7083131.272910544,
        "Time(s)": 141
    },
    {
        "Altitude(m)": 707136.2840623058,
        "Argument of Periapsis(deg)": 0.008512616886847598,
        "Eccentricity": 0.0,
        "Inclination(deg)": 45.0,
        "Latitude(deg)": -16.92625623635556,
        "Longitude(deg)": 81.81009858171427,
        "Mean Anomaly(deg)": -24.107738084514374,
        "RAAN(deg)": 199.99196433848914,
        "Satellite Name": "Constellation 1 900",
        "Satellite Number": 900,
        "Semi-Major Axis(m)": 7083131.272910544,
        "Time(s)": 142
    },
    {
        "Altitude(m)": 707123.9088112783,
        "Argument of Periapsis(deg)": 0.008572564893093004,
        "Eccentricity": 0.0,
        "Inclination(deg)": 45.0,
        "Latitude(deg)": -16.885131134242812,
        "Longitude(deg)": 81.8527400076833,
        "Mean Anomaly(deg)": -24.047036944264516,
        "RAAN(deg)": 199.99190774932353,
        "Satellite Name": "Constellation 1 900",
        "Satellite Number": 900,
        "Semi-Major Axis(m)": 7083131.272910544,
        "Time(s)": 143
    },
    {
        "Altitude(m)": 707111.5448208337,
        "Argument of Periapsis(deg)": 0.008632512899338408,
        "Eccentricity": 0.0,
        "Inclination(deg)": 45.0,
        "Latitude(deg)": -16.84399511286461,
        "Longitude(deg)": 81.89536131018012,
        "Mean Anomaly(deg)": -23.98633580401455,
        "RAAN(deg)": 199.99185116015798,
        "Satellite Name": "Constellation 1 900",
        "Satellite Number": 900,
        "Semi-Major Axis(m)": 7083131.272910544,
        "Time(s)": 144
    },
    {
        "Altitude(m)": 707099.1921294988,
        "Argument of Periapsis(deg)": 0.008692460905583814,
        "Eccentricity": 0.0,
        "Inclination(deg)": 45.0,
        "Latitude(deg)": -16.80284820451409,
        "Longitude(deg)": 81.93796254475438,
        "Mean Anomaly(deg)": -23.925634663764615,
        "RAAN(deg)": 199.99179457099243,
        "Satellite Name": "Constellation 1 900",
        "Satellite Number": 900,
        "Semi-Major Axis(m)": 7083131.272910544,
        "Time(s)": 145
    },
    {
        "Altitude(m)": 707086.8507757446,
        "Argument of Periapsis(deg)": 0.00875240891182922,
        "Eccentricity": 0.0,
        "Inclination(deg)": 45.0,
        "Latitude(deg)": -16.761690441445477,
        "Longitude(deg)": 81.98054376692552,
        "Mean Anomaly(deg)": -23.86493352351473,
        "RAAN(deg)": 199.99173798182684,
        "Satellite Name": "Constellation 1 900",
        "Satellite Number": 900,
        "Semi-Major Axis(m)": 7083131.272910544,
        "Time(s)": 146
    },
    {
        "Altitude(m)": 707074.5207979822,
        "Argument of Periapsis(deg)": 0.008812356918074627,
        "Eccentricity": 0.0,
        "Inclination(deg)": 45.0,
        "Latitude(deg)": -16.72052185587401,
        "Longitude(deg)": 82.02310503218287,
        "Mean Anomaly(deg)": -23.804232383264864,
        "RAAN(deg)": 199.9916813926613,
        "Satellite Name": "Constellation 1 900",
        "Satellite Number": 900,
        "Semi-Major Axis(m)": 7083131.272910544,
        "Time(s)": 147
    },
    {
        "Altitude(m)": 707062.2022345696,
        "Argument of Periapsis(deg)": 0.008872304924320031,
        "Eccentricity": 0.0,
        "Inclination(deg)": 45.0,
        "Latitude(deg)": -16.67934247997631,
        "Longitude(deg)": 82.06564622788865,
        "Mean Anomaly(deg)": -23.743531243014903,
        "RAAN(deg)": 199.99162480349568,
        "Satellite Name": "Constellation 1 900",
        "Satellite Number": 900,
        "Semi-Major Axis(m)": 7083131.272910544,
        "Time(s)": 148
    },
    {
        "Altitude(m)": 707049.8951237953,
        "Argument of Periapsis(deg)": 0.008932252930565437,
        "Eccentricity": 0.0,
        "Inclination(deg)": 45.0,
        "Latitude(deg)": -16.638152345890408,
        "Longitude(deg)": 82.1081677456655,
        "Mean Anomaly(deg)": -23.682830102765042,
        "RAAN(deg)": 199.99156821433013,
        "Satellite Name": "Constellation 1 900",
        "Satellite Number": 900,
        "Semi-Major Axis(m)": 7083131.272910544,
        "Time(s)": 149
    },
    {
        "Altitude(m)": 707037.5995038981,
        "Argument of Periapsis(deg)": 0.008992200936810843,
        "Eccentricity": 0.0,
        "Inclination(deg)": 45.0,
        "Latitude(deg)": -16.59695148571578,
        "Longitude(deg)": 82.15066947281511,
        "Mean Anomaly(deg)": -23.62212896251521,
        "RAAN(deg)": 199.99151162516458,
        "Satellite Name": "Constellation 1 900",
        "Satellite Number": 900,
        "Semi-Major Axis(m)": 7083131.272910544,
        "Time(s)": 150
    },
    {
        "Altitude(m)": 707025.3154130516,
        "Argument of Periapsis(deg)": 0.009052148943056249,
        "Eccentricity": 0.0,
        "Inclination(deg)": 45.0,
        "Latitude(deg)": -16.55573993151359,
        "Longitude(deg)": 82.1931514647059,
        "Mean Anomaly(deg)": -23.56142782226532,
        "RAAN(deg)": 199.991455035999,
        "Satellite Name": "Constellation 1 900",
        "Satellite Number": 900,
        "Semi-Major Axis(m)": 7083131.272910544,
        "Time(s)": 151
    }
]